FENGYUN 1C DEB          
1 30887U 99025AXZ 26063.09455747  .00004203  00000+0  78574-3 0  9991
2 30887  98.3545 122.8363 0263172  41.0854 320.9832 14.45498054993035
FENGYUN 1C DEB          
1 30888U 99025AYA 26061.94043612  .00016576  00000+0  13667-2 0  9995
2 30888  99.4887  62.4630 0076583 257.1484 102.1168 14.96847776 11151
FENGYUN 1C DEB          
1 30891U 99025AYD 26063.06955451  .00001397  00000+0  86564-3 0  9999
2 30891  98.7713 113.1955 0054344 320.8689  70.0962 14.06084136971250
FENGYUN 1C DEB          
1 30892U 99025AYE 26055.63549526  .00000859  00000+0  43261-3 0  9995
2 30892  99.6726  10.4449 0038523 345.1338  14.8699 14.19081121653518
FENGYUN 1C DEB          
1 30893U 99025AYF 26058.31160965  .00001028  00000+0  54282-3 0  9994
2 30893  98.2498  82.4863 0307025 238.0841 188.4600 13.94342261959521
FENGYUN 1C DEB          
1 30895U 99025AYH 26063.17273981  .00001350  00000+0  40677-3 0  9990
2 30895  98.7048 137.0243 0215740 244.7141 145.1697 14.31739599989588
FENGYUN 1C DEB          
1 30898U 99025AYL 26038.05823953  .00331482  00000+0  77123-2 0  9999
2 30898  99.0236 326.4374 0018299 298.6181  61.3220 15.40842654672325
FENGYUN 1C DEB          
1 30899U 99025AYM 26062.96211984  .00002913  00000+0  10498-2 0  9998
2 30899  99.1753 330.3922 0032601  52.3738   7.2628 14.34213992978194
FENGYUN 1C DEB          
1 30903U 99025AYR 26062.53060698  .00000105  00000+0  10405-3 0  9991
2 30903  99.3635 314.7466 0095357 233.2166 126.0216 13.97641506698334
FENGYUN 1C DEB          
1 30905U 99025AYT 26060.02589838  .00002796  00000+0  13555-2 0  9993
2 30905  98.8772 140.4909 0057161 214.7110 145.0329 14.18361879972328
FENGYUN 1C DEB          
1 30907U 99025AYV 26056.30372573  .00001337  00000+0  70334-3 0  9996
2 30907  99.9467  89.8908 0054946 292.4180  67.1175 14.15374167 26049
FENGYUN 1C DEB          
1 30912U 99025AZA 26061.13355088  .00017324  00000+0  16619-2 0  9999
2 30912  98.9929 278.3950 0055046 204.3356 155.5258 14.92036817  5849
FENGYUN 1C DEB          
1 30913U 99025AZB 26063.01583046  .00001189  00000+0  75557-3 0  9995
2 30913  98.7375  92.0177 0046691 314.2502  45.4837 14.05131615970594
FENGYUN 1C DEB          
1 30914U 99025AZC 26062.50464376  .00001434  00000+0  22887-2 0  9993
2 30914  99.9859 306.3477 0506140 169.2588 191.9831 13.09081081601328
FENGYUN 1C DEB          
1 30915U 99025AZD 26063.19886865  .00004937  00000+0  20706-2 0  9990
2 30915  98.9339 145.9197 0049594 289.5349  70.0478 14.25743279976730
FENGYUN 1C DEB          
1 30916U 99025AZE 26063.14885764  .00001859  00000+0  10754-2 0  9995
2 30916  98.9895 128.3507 0063068  32.5673 355.4320 14.09172371969904
