[{"OBJECT_NAME":"FENGYUN 1C DEB","OBJECT_ID":"1999-025AXZ","EPOCH":"2026-03-04T02:16:09.765408","MEAN_MOTION":14.45498054,"ECCENTRICITY":0.0263172,"INCLINATION":98.3545,"RA_OF_ASC_NODE":122.8363,"ARG_OF_PERICENTER":41.0854,"MEAN_ANOMALY":320.9832,"EPHEMERIS_TYPE":0,"CLASSIFICATION_TYPE":"U","NORAD_CAT_ID":30887,"ELEMENT_SET_NO":999,"REV_AT_EPOCH":99303,"BSTAR":0.00078574,"MEAN_MOTION_DOT":4.203e-5,"MEAN_MOTION_DDOT":0},{"OBJECT_NAME":"FENGYUN 1C DEB","OBJECT_ID":"1999-025AYA","EPOCH":"2026-03-02T22:34:13.680768","MEAN_MOTION":14.96847776,"ECCENTRICITY":0.0076583,"INCLINATION":99.4887,"RA_OF_ASC_NODE":62.463,"ARG_OF_PERICENTER":257.1484,"MEAN_ANOMALY":102.1168,"EPHEMERIS_TYPE":0,"CLASSIFICATION_TYPE":"U","NORAD_CAT_ID":30888,"ELEMENT_SET_NO":999,"REV_AT_EPOCH":1115,"BSTAR":0.0013667,"MEAN_MOTION_DOT":0.00016576,"MEAN_MOTION_DDOT":0},{"OBJECT_NAME":"FENGYUN 1C DEB","OBJECT_ID":"1999-025AYD","EPOCH":"2026-03-04T01:40:09.509664","MEAN_MOTION":14.06084136,"ECCENTRICITY":0.0054344,"INCLINATION":98.7713,"RA_OF_ASC_NODE":113.1955,"ARG_OF_PERICENTER":320.8689,"MEAN_ANOMALY":70.0962,"EPHEMERIS_TYPE":0,"CLASSIFICATION_TYPE":"U","NORAD_CAT_ID":30891,"ELEMENT_SET_NO":999,"REV_AT_EPOCH":97125,"BSTAR":0.00086564,"MEAN_MOTION_DOT":1.397e-5,"MEAN_MOTION_DDOT":0},{"OBJECT_NAME":"FENGYUN 1C DEB","OBJECT_ID":"1999-025AYE","EPOCH":"2026-02-24T15:15:06.790464","MEAN_MOTION":14.19081121,"ECCENTRICITY":0.00385234,"INCLINATION":99.6726,"RA_OF_ASC_NODE":10.4449,"ARG_OF_PERICENTER":345.1338,"MEAN_ANOMALY":14.8699,"EPHEMERIS_TYPE":0,"CLASSIFICATION_TYPE":"U","NORAD_CAT_ID":30892,"ELEMENT_SET_NO":999,"REV_AT_EPOCH":65351,"BSTAR":0.00043261039,"MEAN_MOTION_DOT":8.59e-6,"MEAN_MOTION_DDOT":0},{"OBJECT_NAME":"FENGYUN 1C DEB","OBJECT_ID":"1999-025AYF","EPOCH":"2026-02-27T07:28:43.073760","MEAN_MOTION":13.94342261,"ECCENTRICITY":0.0307025,"INCLINATION":98.2498,"RA_OF_ASC_NODE":82.4863,"ARG_OF_PERICENTER":238.0841,"MEAN_ANOMALY":188.46,"EPHEMERIS_TYPE":0,"CLASSIFICATION_TYPE":"U","NORAD_CAT_ID":30893,"ELEMENT_SET_NO":999,"REV_AT_EPOCH":95952,"BSTAR":0.00054282,"MEAN_MOTION_DOT":1.028e-5,"MEAN_MOTION_DDOT":0},{"OBJECT_NAME":"FENGYUN 1C DEB","OBJECT_ID":"1999-025AYH","EPOCH":"2026-03-04T04:08:44.719584","MEAN_MOTION":14.31739599,"ECCENTRICITY":0.021574,"INCLINATION":98.7048,"RA_OF_ASC_NODE":137.0243,"ARG_OF_PERICENTER":244.7141,"MEAN_ANOMALY":145.1697,"EPHEMERIS_TYPE":0,"CLASSIFICATION_TYPE":"U","NORAD_CAT_ID":30895,"ELEMENT_SET_NO":999,"REV_AT_EPOCH":98958,"BSTAR":0.00040677,"MEAN_MOTION_DOT":1.35e-5,"MEAN_MOTION_DDOT":0},{"OBJECT_NAME":"FENGYUN 1C DEB","OBJECT_ID":"1999-025AYL","EPOCH":"2026-02-07T01:23:51.895392","MEAN_MOTION":15.40842654,"ECCENTRICITY":0.0018299,"INCLINATION":99.0236,"RA_OF_ASC_NODE":326.4374,"ARG_OF_PERICENTER":298.6181,"MEAN_ANOMALY":61.322,"EPHEMERIS_TYPE":0,"CLASSIFICATION_TYPE":"U","NORAD_CAT_ID":30898,"ELEMENT_SET_NO":999,"REV_AT_EPOCH":67232,"BSTAR":0.0077123,"MEAN_MOTION_DOT":0.00331482,"MEAN_MOTION_DDOT":0},{"OBJECT_NAME":"FENGYUN 1C DEB","OBJECT_ID":"1999-025AYM","EPOCH":"2026-03-03T23:05:27.154176","MEAN_MOTION":14.34213992,"ECCENTRICITY":0.0032601,"INCLINATION":99.1753,"RA_OF_ASC_NODE":330.3922,"ARG_OF_PERICENTER":52.3738,"MEAN_ANOMALY":7.2628,"EPHEMERIS_TYPE":0,"CLASSIFICATION_TYPE":"U","NORAD_CAT_ID":30899,"ELEMENT_SET_NO":999,"REV_AT_EPOCH":97819,"BSTAR":0.0010498,"MEAN_MOTION_DOT":2.913e-5,"MEAN_MOTION_DDOT":0},{"OBJECT_NAME":"FENGYUN 1C DEB","OBJECT_ID":"1999-025AYR","EPOCH":"2026-03-03T12:44:04.443072","MEAN_MOTION":13.97641506,"ECCENTRICITY":0.0095357,"INCLINATION":99.3635,"RA_OF_ASC_NODE":314.7466,"ARG_OF_PERICENTER":233.2166,"MEAN_ANOMALY":126.0216,"EPHEMERIS_TYPE":0,"CLASSIFICATION_TYPE":"U","NORAD_CAT_ID":30903,"ELEMENT_SET_NO":999,"REV_AT_EPOCH":69833,"BSTAR":0.00010405,"MEAN_MOTION_DOT":1.05e-6,"MEAN_MOTION_DDOT":0},{"OBJECT_NAME":"FENGYUN 1C DEB","OBJECT_ID":"1999-025AYT","EPOCH":"2026-03-01T00:37:17.620032","MEAN_MOTION":14.18361879,"ECCENTRICITY":0.00571618,"INCLINATION":98.8772,"RA_OF_ASC_NODE":140.4909,"ARG_OF_PERICENTER":214.711,"MEAN_ANOMALY":145.0329,"EPHEMERIS_TYPE":0,"CLASSIFICATION_TYPE":"U","NORAD_CAT_ID":30905,"ELEMENT_SET_NO":999,"REV_AT_EPOCH":97232,"BSTAR":0.0013554791,"MEAN_MOTION_DOT":2.796e-5,"MEAN_MOTION_DDOT":0},{"OBJECT_NAME":"FENGYUN 1C DEB","OBJECT_ID":"1999-025AYV","EPOCH":"2026-02-25T07:17:21.903072","MEAN_MOTION":14.15374167,"ECCENTRICITY":0.0054946,"INCLINATION":99.9467,"RA_OF_ASC_NODE":89.8908,"ARG_OF_PERICENTER":292.418,"MEAN_ANOMALY":67.1175,"EPHEMERIS_TYPE":0,"CLASSIFICATION_TYPE":"U","NORAD_CAT_ID":30907,"ELEMENT_SET_NO":999,"REV_AT_EPOCH":2604,"BSTAR":0.00070334,"MEAN_MOTION_DOT":1.337e-5,"MEAN_MOTION_DDOT":0},{"OBJECT_NAME":"FENGYUN 1C DEB","OBJECT_ID":"1999-025AZA","EPOCH":"2026-03-02T03:12:18.796032","MEAN_MOTION":14.92036817,"ECCENTRICITY":0.00550461,"INCLINATION":98.9929,"RA_OF_ASC_NODE":278.395,"ARG_OF_PERICENTER":204.3356,"MEAN_ANOMALY":155.5258,"EPHEMERIS_TYPE":0,"CLASSIFICATION_TYPE":"U","NORAD_CAT_ID":30912,"ELEMENT_SET_NO":999,"REV_AT_EPOCH":584,"BSTAR":0.0016619427,"MEAN_MOTION_DOT":0.00017324,"MEAN_MOTION_DDOT":0},{"OBJECT_NAME":"FENGYUN 1C DEB","OBJECT_ID":"1999-025AZB","EPOCH":"2026-03-04T00:22:47.751744","MEAN_MOTION":14.05131615,"ECCENTRICITY":0.0046691,"INCLINATION":98.7375,"RA_OF_ASC_NODE":92.0177,"ARG_OF_PERICENTER":314.2502,"MEAN_ANOMALY":45.4837,"EPHEMERIS_TYPE":0,"CLASSIFICATION_TYPE":"U","NORAD_CAT_ID":30913,"ELEMENT_SET_NO":999,"REV_AT_EPOCH":97059,"BSTAR":0.00075557,"MEAN_MOTION_DOT":1.189e-5,"MEAN_MOTION_DDOT":0},{"OBJECT_NAME":"FENGYUN 1C DEB","OBJECT_ID":"1999-025AZC","EPOCH":"2026-03-03T12:06:41.220864","MEAN_MOTION":13.09081081,"ECCENTRICITY":0.050614,"INCLINATION":99.9859,"RA_OF_ASC_NODE":306.3477,"ARG_OF_PERICENTER":169.2588,"MEAN_ANOMALY":191.9831,"EPHEMERIS_TYPE":0,"CLASSIFICATION_TYPE":"U","NORAD_CAT_ID":30914,"ELEMENT_SET_NO":999,"REV_AT_EPOCH":60132,"BSTAR":0.0022887,"MEAN_MOTION_DOT":1.434e-5,"MEAN_MOTION_DDOT":0},{"OBJECT_NAME":"FENGYUN 1C DEB","OBJECT_ID":"1999-025AZD","EPOCH":"2026-03-04T04:46:22.251360","MEAN_MOTION":14.25743279,"ECCENTRICITY":0.0049594,"INCLINATION":98.9339,"RA_OF_ASC_NODE":145.9197,"ARG_OF_PERICENTER":289.5349,"MEAN_ANOMALY":70.0478,"EPHEMERIS_TYPE":0,"CLASSIFICATION_TYPE":"U","NORAD_CAT_ID":30915,"ELEMENT_SET_NO":999,"REV_AT_EPOCH":97673,"BSTAR":0.0020706,"MEAN_MOTION_DOT":4.937e-5,"MEAN_MOTION_DDOT":0},{"OBJECT_NAME":"FENGYUN 1C DEB","OBJECT_ID":"1999-025AZE","EPOCH":"2026-03-04T03:34:21.300096","MEAN_MOTION":14.09172371,"ECCENTRICITY":0.0063068,"INCLINATION":98.9895,"RA_OF_ASC_NODE":128.3507,"ARG_OF_PERICENTER":32.5673,"MEAN_ANOMALY":355.432,"EPHEMERIS_TYPE":0,"CLASSIFICATION_TYPE":"U","NORAD_CAT_ID":30916,"ELEMENT_SET_NO":999,"REV_AT_EPOCH":96990,"BSTAR":0.0010754,"MEAN_MOTION_DOT":1.859e-5,"MEAN_MOTION_DDOT":0}]
